[{"OBJECT_NAME":"ONEWEB-0275","OBJECT_ID":"2021-060AC","EPOCH":"2026-05-27T06:06:08.390592","MEAN_MOTION":13.16593285,"ECCENTRICITY":0.000199,"INCLINATION":87.9106,"RA_OF_ASC_NODE":232.931,"ARG_OF_PERICENTER":96.7088,"MEAN_ANOMALY":263.427,"EPHEMERIS_TYPE":0,"CLASSIFICATION_TYPE":"U","NORAD_CAT_ID":48993,"ELEMENT_SET_NO":999,"REV_AT_EPOCH":23680,"BSTAR":-8.608e-05,"MEAN_MOTION_DOT":-2e-07,"MEAN_MOTION_DDOT":0.0},{"OBJECT_NAME":"ONEWEB-0276","OBJECT_ID":"2021-060AD","EPOCH":"2026-05-27T06:54:00.580608","MEAN_MOTION":13.16593123,"ECCENTRICITY":0.0002076,"INCLINATION":87.9104,"RA_OF_ASC_NODE":232.9245,"ARG_OF_PERICENTER":95.786,"MEAN_ANOMALY":264.3508,"EPHEMERIS_TYPE":0,"CLASSIFICATION_TYPE":"U","NORAD_CAT_ID":48994,"ELEMENT_SET_NO":999,"REV_AT_EPOCH":23682,"BSTAR":2.9260000000000004e-05,"MEAN_MOTION_DOT":2.4e-07,"MEAN_MOTION_DDOT":0.0},{"OBJECT_NAME":"ONEWEB-0277","OBJECT_ID":"2021-060AE","EPOCH":"2026-05-27T07:12:14.918688","MEAN_MOTION":13.16593018,"ECCENTRICITY":0.0001852,"INCLINATION":87.9096,"RA_OF_ASC_NODE":232.9319,"ARG_OF_PERICENTER":98.4854,"MEAN_ANOMALY":261.6487,"EPHEMERIS_TYPE":0,"CLASSIFICATION_TYPE":"U","NORAD_CAT_ID":48995,"ELEMENT_SET_NO":999,"REV_AT_EPOCH":23681,"BSTAR":0.0002075,"MEAN_MOTION_DOT":9.2e-07,"MEAN_MOTION_DDOT":0.0},{"OBJECT_NAME":"ONEWEB-0278","OBJECT_ID":"2021-060AF","EPOCH":"2026-05-27T06:58:35.232384","MEAN_MOTION":13.16595205,"ECCENTRICITY":0.0002095,"INCLINATION":87.9107,"RA_OF_ASC_NODE":232.9224,"ARG_OF_PERICENTER":106.1063,"MEAN_ANOMALY":254.0298,"EPHEMERIS_TYPE":0,"CLASSIFICATION_TYPE":"U","NORAD_CAT_ID":48996,"ELEMENT_SET_NO":999,"REV_AT_EPOCH":23694,"BSTAR":0.00024903,"MEAN_MOTION_DOT":1.08e-06,"MEAN_MOTION_DDOT":0.0},{"OBJECT_NAME":"ONEWEB-0279","OBJECT_ID":"2021-060AG","EPOCH":"2026-05-27T05:20:32.665056","MEAN_MOTION":13.16593051,"ECCENTRICITY":0.0001871,"INCLINATION":87.9105,"RA_OF_ASC_NODE":232.9345,"ARG_OF_PERICENTER":92.5116,"MEAN_ANOMALY":267.6229,"EPHEMERIS_TYPE":0,"CLASSIFICATION_TYPE":"U","NORAD_CAT_ID":48997,"ELEMENT_SET_NO":999,"REV_AT_EPOCH":23686,"BSTAR":0.00014898,"MEAN_MOTION_DOT":7e-07,"MEAN_MOTION_DDOT":0.0},{"OBJECT_NAME":"ONEWEB-0280","OBJECT_ID":"2021-060AH","EPOCH":"2026-05-27T05:42:10.715328","MEAN_MOTION":13.16597181,"ECCENTRICITY":0.000175,"INCLINATION":87.9105,"RA_OF_ASC_NODE":232.9357,"ARG_OF_PERICENTER":108.1263,"MEAN_ANOMALY":252.0059,"EPHEMERIS_TYPE":0,"CLASSIFICATION_TYPE":"U","NORAD_CAT_ID":48998,"ELEMENT_SET_NO":999,"REV_AT_EPOCH":23680,"BSTAR":7.6679e-05,"MEAN_MOTION_DOT":4.2e-07,"MEAN_MOTION_DDOT":0.0},{"OBJECT_NAME":"ONEWEB-0281","OBJECT_ID":"2021-060AJ","EPOCH":"2026-05-27T05:50:11.342112","MEAN_MOTION":13.16593732,"ECCENTRICITY":0.0002033,"INCLINATION":87.9108,"RA_OF_ASC_NODE":232.9295,"ARG_OF_PERICENTER":102.0129,"MEAN_ANOMALY":258.123,"EPHEMERIS_TYPE":0,"CLASSIFICATION_TYPE":"U","NORAD_CAT_ID":48999,"ELEMENT_SET_NO":999,"REV_AT_EPOCH":23687,"BSTAR":0.00014128,"MEAN_MOTION_DOT":6.7e-07,"MEAN_MOTION_DDOT":0.0},{"OBJECT_NAME":"ONEWEB-0282","OBJECT_ID":"2021-060AK","EPOCH":"2026-05-27T06:33:30.350880","MEAN_MOTION":13.16595979,"ECCENTRICITY":0.0001864,"INCLINATION":87.9104,"RA_OF_ASC_NODE":232.9324,"ARG_OF_PERICENTER":100.3694,"MEAN_ANOMALY":259.7648,"EPHEMERIS_TYPE":0,"CLASSIFICATION_TYPE":"U","NORAD_CAT_ID":49000,"ELEMENT_SET_NO":999,"REV_AT_EPOCH":23685,"BSTAR":-0.00039068,"MEAN_MOTION_DOT":-1.37e-06,"MEAN_MOTION_DDOT":0.0},{"OBJECT_NAME":"ONEWEB-0283","OBJECT_ID":"2021-060AL","EPOCH":"2026-05-27T06:17:31.607232","MEAN_MOTION":13.16593434,"ECCENTRICITY":0.000193,"INCLINATION":87.9104,"RA_OF_ASC_NODE":232.9342,"ARG_OF_PERICENTER":96.0228,"MEAN_ANOMALY":264.1123,"EPHEMERIS_TYPE":0,"CLASSIFICATION_TYPE":"U","NORAD_CAT_ID":49001,"ELEMENT_SET_NO":999,"REV_AT_EPOCH":23686,"BSTAR":-0.00013261000000000002,"MEAN_MOTION_DOT":-3.8e-07,"MEAN_MOTION_DDOT":0.0},{"OBJECT_NAME":"ONEWEB-0284","OBJECT_ID":"2021-060AM","EPOCH":"2026-05-27T06:08:25.090944","MEAN_MOTION":13.16593302,"ECCENTRICITY":0.0001934,"INCLINATION":87.9106,"RA_OF_ASC_NODE":232.9281,"ARG_OF_PERICENTER":109.8107,"MEAN_ANOMALY":250.3233,"EPHEMERIS_TYPE":0,"CLASSIFICATION_TYPE":"U","NORAD_CAT_ID":49002,"ELEMENT_SET_NO":999,"REV_AT_EPOCH":23684,"BSTAR":-4.46e-05,"MEAN_MOTION_DOT":-4e-08,"MEAN_MOTION_DDOT":0.0},{"OBJECT_NAME":"ONEWEB-0285","OBJECT_ID":"2021-075A","EPOCH":"2026-05-27T02:16:52.199040","MEAN_MOTION":13.12443019,"ECCENTRICITY":0.0001717,"INCLINATION":87.8957,"RA_OF_ASC_NODE":354.8566,"ARG_OF_PERICENTER":85.8542,"MEAN_ANOMALY":274.2783,"EPHEMERIS_TYPE":0,"CLASSIFICATION_TYPE":"U","NORAD_CAT_ID":49075,"ELEMENT_SET_NO":999,"REV_AT_EPOCH":23244,"BSTAR":0.001289,"MEAN_MOTION_DOT":4.76e-06,"MEAN_MOTION_DDOT":0.0},{"OBJECT_NAME":"ONEWEB-0286","OBJECT_ID":"2021-075B","EPOCH":"2026-05-27T01:51:02.332512","MEAN_MOTION":13.12442588,"ECCENTRICITY":0.0001984,"INCLINATION":87.8947,"RA_OF_ASC_NODE":354.879,"ARG_OF_PERICENTER":88.8007,"MEAN_ANOMALY":271.3349,"EPHEMERIS_TYPE":0,"CLASSIFICATION_TYPE":"U","NORAD_CAT_ID":49076,"ELEMENT_SET_NO":999,"REV_AT_EPOCH":23179,"BSTAR":-0.0005062900000000001,"MEAN_MOTION_DOT":-1.69e-06,"MEAN_MOTION_DDOT":0.0},{"OBJECT_NAME":"ONEWEB-0287","OBJECT_ID":"2021-075C","EPOCH":"2026-05-27T03:10:32.688192","MEAN_MOTION":13.17649069,"ECCENTRICITY":0.0002178,"INCLINATION":87.9151,"RA_OF_ASC_NODE":10.0535,"ARG_OF_PERICENTER":92.5549,"MEAN_ANOMALY":267.5832,"EPHEMERIS_TYPE":0,"CLASSIFICATION_TYPE":"U","NORAD_CAT_ID":49077,"ELEMENT_SET_NO":999,"REV_AT_EPOCH":23085,"BSTAR":-0.00062105,"MEAN_MOTION_DOT":-2.28e-06,"MEAN_MOTION_DDOT":0.0},{"OBJECT_NAME":"ONEWEB-0288","OBJECT_ID":"2021-075D","EPOCH":"2026-05-27T03:06:52.057152","MEAN_MOTION":13.12441295,"ECCENTRICITY":0.0001865,"INCLINATION":87.8956,"RA_OF_ASC_NODE":354.8433,"ARG_OF_PERICENTER":93.2837,"MEAN_ANOMALY":266.8505,"EPHEMERIS_TYPE":0,"CLASSIFICATION_TYPE":"U","NORAD_CAT_ID":49078,"ELEMENT_SET_NO":999,"REV_AT_EPOCH":23242,"BSTAR":-0.00037679,"MEAN_MOTION_DOT":-1.23e-06,"MEAN_MOTION_DDOT":0.0},{"OBJECT_NAME":"ONEWEB-0289","OBJECT_ID":"2021-075E","EPOCH":"2026-05-27T04:06:14.495904","MEAN_MOTION":13.1764841,"ECCENTRICITY":0.0001481,"INCLINATION":87.9156,"RA_OF_ASC_NODE":10.0617,"ARG_OF_PERICENTER":91.8868,"MEAN_ANOMALY":268.2433,"EPHEMERIS_TYPE":0,"CLASSIFICATION_TYPE":"U","NORAD_CAT_ID":49079,"ELEMENT_SET_NO":999,"REV_AT_EPOCH":23143,"BSTAR":6.7618e-05,"MEAN_MOTION_DOT":3.9e-07,"MEAN_MOTION_DDOT":0.0},{"OBJECT_NAME":"ONEWEB-0290","OBJECT_ID":"2021-075F","EPOCH":"2026-05-27T03:27:34.358688","MEAN_MOTION":13.17649213,"ECCENTRICITY":0.0001331,"INCLINATION":87.9158,"RA_OF_ASC_NODE":10.0381,"ARG_OF_PERICENTER":92.527,"MEAN_ANOMALY":267.6014,"EPHEMERIS_TYPE":0,"CLASSIFICATION_TYPE":"U","NORAD_CAT_ID":49080,"ELEMENT_SET_NO":999,"REV_AT_EPOCH":23084,"BSTAR":0.00021776,"MEAN_MOTION_DOT":9.7e-07,"MEAN_MOTION_DDOT":0.0}]