ONEWEB-0275             
1 48993U 21060AC  26147.25426378 -.00000020  00000+0 -86080-4 0  9998
2 48993  87.9106 232.9310 0001990  96.7088 263.4270 13.16593285236809
ONEWEB-0276             
1 48994U 21060AD  26147.28750672  .00000024  00000+0  29260-4 0  9998
2 48994  87.9104 232.9245 0002076  95.7860 264.3508 13.16593123236825
ONEWEB-0277             
1 48995U 21060AE  26147.30017267  .00000092  00000+0  20750-3 0  9997
2 48995  87.9096 232.9319 0001852  98.4854 261.6487 13.16593018236810
ONEWEB-0278             
1 48996U 21060AF  26147.29068556  .00000108  00000+0  24903-3 0  9995
2 48996  87.9107 232.9224 0002095 106.1063 254.0298 13.16595205236948
ONEWEB-0279             
1 48997U 21060AG  26147.22260029  .00000070  00000+0  14898-3 0  9998
2 48997  87.9105 232.9345 0001871  92.5116 267.6229 13.16593051236861
ONEWEB-0280             
1 48998U 21060AH  26147.23762402  .00000042  00000+0  76679-4 0  9997
2 48998  87.9105 232.9357 0001750 108.1263 252.0059 13.16597181236809
ONEWEB-0281             
1 48999U 21060AJ  26147.24318683  .00000067  00000+0  14128-3 0  9994
2 48999  87.9108 232.9295 0002033 102.0129 258.1230 13.16593732236876
ONEWEB-0282             
1 49000U 21060AK  26147.27326795 -.00000137  00000+0 -39068-3 0  9994
2 49000  87.9104 232.9324 0001864 100.3694 259.7648 13.16595979236851
ONEWEB-0283             
1 49001U 21060AL  26147.26217138 -.00000038  00000+0 -13261-3 0  9991
2 49001  87.9104 232.9342 0001930  96.0228 264.1123 13.16593434236863
ONEWEB-0284             
1 49002U 21060AM  26147.25584596 -.00000004  00000+0 -44600-4 0  9991
2 49002  87.9106 232.9281 0001934 109.8107 250.3233 13.16593302236842
ONEWEB-0285             
1 49075U 21075A   26147.09504860  .00000476  00000+0  12890-2 0  9990
2 49075  87.8957 354.8566 0001717  85.8542 274.2783 13.12443019232442
ONEWEB-0286             
1 49076U 21075B   26147.07711033 -.00000169  00000+0 -50629-3 0  9995
2 49076  87.8947 354.8790 0001984  88.8007 271.3349 13.12442588231799
ONEWEB-0287             
1 49077U 21075C   26147.13232278 -.00000228  00000+0 -62105-3 0  9990
2 49077  87.9151  10.0535 0002178  92.5549 267.5832 13.17649069230853
ONEWEB-0288             
1 49078U 21075D   26147.12976918 -.00000123  00000+0 -37679-3 0  9998
2 49078  87.8956 354.8433 0001865  93.2837 266.8505 13.12441295232422
ONEWEB-0289             
1 49079U 21075E   26147.17100111  .00000039  00000+0  67618-4 0  9999
2 49079  87.9156  10.0617 0001481  91.8868 268.2433 13.17648410231432
ONEWEB-0290             
1 49080U 21075F   26147.14414767  .00000097  00000+0  21776-3 0  9991
2 49080  87.9158  10.0381 0001331  92.5270 267.6014 13.17649213230847
